ONEWEB-0628             
1 55169U 23004AF  24255.04751046 -.00000179  00000+0 -53256-3 0  9992
2 55169  87.8891 118.9326 0001853  53.0128 307.1170 13.12443286 83548
ONEWEB-0629             
1 55170U 23004AG  24255.17505437  .00000019  00000+0  15718-4 0  9992
2 55170  87.9144 134.1497 0001158  66.8147 293.3107 13.17648451 82778
ONEWEB-0631             
1 55171U 23004AH  24254.68188079  .00000126  00000+0  28695-3 0  9993
2 55171  87.9077 103.7153 0002376  83.6071 276.5332 13.18682566 84738
ONEWEB-0709             
1 55172U 23004AJ  24254.72551614 -.00000229  00000+0 -68243-3 0  9997
2 55172  87.8978 149.4475 0002622  91.9722 268.1707 13.11413859 81416
ONEWEB-0710             
1 55173U 23004AK  24254.73398076  .00000057  00000+0  11421-3 0  9993
2 55173  87.9145 134.2598 0001961  75.1710 284.9639 13.17651557 82717
ONEWEB-0711             
1 55174U 23004AL  24254.69670335  .00000497  00000+0  13653-2 0  9996
2 55174  87.8978 149.4219 0002304  53.2785 306.8554 13.11418010 81369
ONEWEB-0713             
1 55175U 23004AM  24255.17313367  .00000363  00000+0  98844-3 0  9998
2 55175  87.8976 149.3358 0001907  64.3404 295.7920 13.11415850 81418
ONEWEB-0715             
1 55176U 23004AN  24255.16805319  .00000568  00000+0  15679-2 0  9992
2 55176  87.8976 149.3370 0002174  75.9750 284.1619 13.11416706 81465
